{
    "links": {
        "self": "http://www.neowsapp.com/rest/v1/neo/3782059?api_key=iIulBulltgU6a56xZRHN4H3l9WmuAYTsLGpBGhQ2"
    },
    "id": "3782059",
    "neo_reference_id": "3782059",
    "name": "(2017 TC1)",
    "designation": "2017 TC1",
    "nasa_jpl_url": "http://ssd.jpl.nasa.gov/sbdb.cgi?sstr=3782059",
    "absolute_magnitude_h": 20.9,
    "estimated_diameter": {
        "kilometers": {
            "estimated_diameter_min": 0.1756123185,
            "estimated_diameter_max": 0.3926810818
        },
        "meters": {
            "estimated_diameter_min": 175.6123184804,
            "estimated_diameter_max": 392.6810818086
        },
        "miles": {
            "estimated_diameter_min": 0.1091204019,
            "estimated_diameter_max": 0.2440006365
        },
        "feet": {
            "estimated_diameter_min": 576.1559189633,
            "estimated_diameter_max": 1288.3238004408
        }
    },
    "is_potentially_hazardous_asteroid": false,
    "close_approach_data": [
        {
            "close_approach_date": "2017-10-17",
            "close_approach_date_full": "2017-Oct-17 04:07",
            "epoch_date_close_approach": 1508213220000,
            "relative_velocity": {
                "kilometers_per_second": "35.1489736136",
                "kilometers_per_hour": "126536.3050088405",
                "miles_per_hour": "78624.7390761876"
            },
            "miss_distance": {
                "astronomical": "0.2320875142",
                "lunar": "90.2820430238",
                "kilometers": "34719797.777914754",
                "miles": "21573881.9449974452"
            },
            "orbiting_body": "Earth"
        }
    ],
    "orbital_data": {
        "orbit_id": "4",
        "orbit_determination_date": "2017-11-06 06:17:49",
        "first_observation_date": "2017-10-01",
        "last_observation_date": "2017-10-23",
        "data_arc_in_days": 22,
        "observations_used": 54,
        "orbit_uncertainty": "8",
        "minimum_orbit_intersection": ".114589",
        "jupiter_tisserand_invariant": "2.424",
        "epoch_osculation": "2458029.5",
        "eccentricity": ".9695289870703989",
        "semi_major_axis": "2.489970639167797",
        "inclination": "9.288061353112155",
        "ascending_node_longitude": "274.3660039745766",
        "orbital_period": "1435.125119099564",
        "perihelion_distance": ".07587192754040901",
        "perihelion_argument": "253.0705217336933",
        "aphelion_distance": "4.904069350795185",
        "perihelion_time": "2458079.226689903706",
        "mean_anomaly": "347.5260992041125",
        "mean_motion": ".2508492083435022",
        "equinox": "J2000",
        "orbit_class": {
            "orbit_class_type": "APO",
            "orbit_class_description": "Near-Earth asteroid orbits which cross the Earth’s orbit similar to that of 1862 Apollo",
            "orbit_class_range": "a (semi-major axis) > 1.0 AU; q (perihelion) < 1.017 AU"
        }
    },
    "is_sentry_object": false
}